{
  "type": "FeatureCollection",
  "features": [
    {
      "type": "Feature",
      "properties": {
        "norad_id": 40069,
        "name": "METEOR-M 2",
        "group": "weather",
        "lat": -69.07837241862758,
        "lon": -14.847918372921981,
        "alt_km": 826.8178328664144,
        "timestamp": "2025-12-10T11:33:53.034095+00:00",
        "meta_object_name": "METEOR-M 2",
        "meta_object_id": "2014-037A",
        "meta_epoch": "2025-12-10T05:08:22.794144",
        "meta_mean_motion": 14.21385259,
        "meta_eccentricity": 0.0004861,
        "meta_inclination": 98.4902,
        "meta_ra_of_asc_node": 321.8952,
        "meta_arg_of_pericenter": 218.3482,
        "meta_mean_anomaly": 141.735,
        "meta_ephemeris_type": 0,
        "meta_classification_type": "U",
        "meta_norad_cat_id": 40069,
        "meta_element_set_no": 999,
        "meta_rev_at_epoch": 59247,
        "meta_bstar": 0.00023924,
        "meta_mean_motion_dot": 4.8e-06,
        "meta_mean_motion_ddot": 0,
        "tle_line1": "1 40069U 14037A   25344.21415271  .00000480  00000+0  23924-3 0  9999",
        "tle_line2": "2 40069  98.4902 321.8952 0004861 218.3482 141.7350 14.21385259592478"
      },
      "geometry": {
        "type": "Point",
        "coordinates": [
          -14.847918372921981,
          -69.07837241862758
        ]
      }
    },
    {
      "type": "Feature",
      "properties": {
        "norad_id": 40267,
        "name": "HIMAWARI-8",
        "group": "weather",
        "lat": 0.017687181192932923,
        "lon": 33.597734974253065,
        "alt_km": 35786.98006062999,
        "timestamp": "2025-12-10T11:33:53.034107+00:00",
        "meta_object_name": "HIMAWARI-8",
        "meta_object_id": "2014-060A",
        "meta_epoch": "2025-12-09T21:05:27.692736",
        "meta_mean_motion": 1.00270565,
        "meta_eccentricity": 0.0001253,
        "meta_inclination": 0.0336,
        "meta_ra_of_asc_node": 211.9614,
        "meta_arg_of_pericenter": 86.5046,
        "meta_mean_anomaly": 237.4234,
        "meta_ephemeris_type": 0,
        "meta_classification_type": "U",
        "meta_norad_cat_id": 40267,
        "meta_element_set_no": 999,
        "meta_rev_at_epoch": 4086,
        "meta_bstar": 0,
        "meta_mean_motion_dot": -2.73e-06,
        "meta_mean_motion_ddot": 0,
        "tle_line1": "1 40267U 14060A   25343.87879274 -.00000273  00000+0  00000+0 0  9990",
        "tle_line2": "2 40267   0.0336 211.9614 0001253  86.5046 237.4234  1.00270565 40866"
      },
      "geometry": {
        "type": "Point",
        "coordinates": [
          33.597734974253065,
          0.017687181192932923
        ]
      }
    },
    {
      "type": "Feature",
      "properties": {
        "norad_id": 40367,
        "name": "FENGYUN 2G",
        "group": "weather",
        "lat": -5.118926434851584,
        "lon": -7.41745871964472,
        "alt_km": 35787.64960593995,
        "timestamp": "2025-12-10T11:33:53.034119+00:00",
        "meta_object_name": "FENGYUN 2G",
        "meta_object_id": "2014-090A",
        "meta_epoch": "2025-12-09T19:11:01.159872",
        "meta_mean_motion": 1.00264939,
        "meta_eccentricity": 0.0003084,
        "meta_inclination": 5.1606,
        "meta_ra_of_asc_node": 75.1277,
        "meta_arg_of_pericenter": 192.3246,
        "meta_mean_anomaly": 198.6902,
        "meta_ephemeris_type": 0,
        "meta_classification_type": "U",
        "meta_norad_cat_id": 40367,
        "meta_element_set_no": 999,
        "meta_rev_at_epoch": 4010,
        "meta_bstar": 0,
        "meta_mean_motion_dot": -2.99e-06,
        "meta_mean_motion_ddot": 0,
        "tle_line1": "1 40367U 14090A   25343.79931898 -.00000299  00000+0  00000+0 0  9994",
        "tle_line2": "2 40367   5.1606  75.1277 0003084 192.3246 198.6902  1.00264939 40105"
      },
      "geometry": {
        "type": "Point",
        "coordinates": [
          -7.41745871964472,
          -5.118926434851584
        ]
      }
    },
    {
      "type": "Feature",
      "properties": {
        "norad_id": 40732,
        "name": "METEOSAT-11 (MSG-4)",
        "group": "weather",
        "lat": -0.5051314612289682,
        "lon": -97.74499399916974,
        "alt_km": 35785.98524695389,
        "timestamp": "2025-12-10T11:33:53.034131+00:00",
        "meta_object_name": "METEOSAT-11 (MSG-4)",
        "meta_object_id": "2015-034A",
        "meta_epoch": "2025-12-09T22:35:38.584320",
        "meta_mean_motion": 1.00266624,
        "meta_eccentricity": 9.65e-05,
        "meta_inclination": 2.7284,
        "meta_ra_of_asc_node": 72.0094,
        "meta_arg_of_pericenter": 122.8009,
        "meta_mean_anomaly": 232.3625,
        "meta_ephemeris_type": 0,
        "meta_classification_type": "U",
        "meta_norad_cat_id": 40732,
        "meta_element_set_no": 999,
        "meta_rev_at_epoch": 531,
        "meta_bstar": 0,
        "meta_mean_motion_dot": 6.4e-07,
        "meta_mean_motion_ddot": 0,
        "tle_line1": "1 40732U 15034A   25343.94141880  .00000064  00000+0  00000+0 0  9999",
        "tle_line2": "2 40732   2.7284  72.0094 0000965 122.8009 232.3625  1.00266624  5314"
      },
      "geometry": {
        "type": "Point",
        "coordinates": [
          -97.74499399916974,
          -0.5051314612289682
        ]
      }
    },
    {
      "type": "Feature",
      "properties": {
        "norad_id": 41105,
        "name": "ELEKTRO-L 2",
        "group": "weather",
        "lat": 1.532250345260309,
        "lon": -121.51548689723525,
        "alt_km": 35772.31405490243,
        "timestamp": "2025-12-10T11:33:53.034142+00:00",
        "meta_object_name": "ELEKTRO-L 2",
        "meta_object_id": "2015-074A",
        "meta_epoch": "2025-12-09T01:31:10.511904",
        "meta_mean_motion": 1.00271905,
        "meta_eccentricity": 0.00038363,
        "meta_inclination": 6.2161,
        "meta_ra_of_asc_node": 72.8685,
        "meta_arg_of_pericenter": 198.9202,
        "meta_mean_anomaly": 174.5582,
        "meta_ephemeris_type": 0,
        "meta_classification_type": "U",
        "meta_norad_cat_id": 41105,
        "meta_element_set_no": 999,
        "meta_rev_at_epoch": 3660,
        "meta_bstar": 0,
        "meta_mean_motion_dot": -1.16e-06,
        "meta_mean_motion_ddot": 0,
        "tle_line1": "1 41105U 15074A   25343.06331611 -.00000116  00000+0  00000+0 0  9993",
        "tle_line2": "2 41105   6.2161  72.8685 0003836 198.9202 174.5582  1.00271905 36608"
      },
      "geometry": {
        "type": "Point",
        "coordinates": [
          -121.51548689723525,
          1.532250345260309
        ]
      }
    },
    {
      "type": "Feature",
      "properties": {
        "norad_id": 41752,
        "name": "INSAT-3DR",
        "group": "weather",
        "lat": -0.07822983965390261,
        "lon": -32.93283166281356,
        "alt_km": 35752.80639651646,
        "timestamp": "2025-12-10T11:33:53.034155+00:00",
        "meta_object_name": "INSAT-3DR",
        "meta_object_id": "2016-054A",
        "meta_epoch": "2025-12-09T22:15:38.661120",
        "meta_mean_motion": 1.00270431,
        "meta_eccentricity": 0.0014493,
        "meta_inclination": 0.0851,
        "meta_ra_of_asc_node": 86.5837,
        "meta_arg_of_pericenter": 183.7779,
        "meta_mean_anomaly": 216.4656,
        "meta_ephemeris_type": 0,
        "meta_classification_type": "U",
        "meta_norad_cat_id": 41752,
        "meta_element_set_no": 999,
        "meta_rev_at_epoch": 3392,
        "meta_bstar": 0,
        "meta_mean_motion_dot": -7.4e-07,
        "meta_mean_motion_ddot": 0,
        "tle_line1": "1 41752U 16054A   25343.92753080 -.00000074  00000+0  00000+0 0  9996",
        "tle_line2": "2 41752   0.0851  86.5837 0014493 183.7779 216.4656  1.00270431 33920"
      },
      "geometry": {
        "type": "Point",
        "coordinates": [
          -32.93283166281356,
          -0.07822983965390261
        ]
      }
    },
    {
      "type": "Feature",
      "properties": {
        "norad_id": 41836,
        "name": "HIMAWARI-9",
        "group": "weather",
        "lat": -0.0005807664019101039,
        "lon": 33.71839721343364,
        "alt_km": 35789.297603663385,
        "timestamp": "2025-12-10T11:33:53.034167+00:00",
        "meta_object_name": "HIMAWARI-9",
        "meta_object_id": "2016-064A",
        "meta_epoch": "2025-12-09T21:15:38.716128",
        "meta_mean_motion": 1.00273683,
        "meta_eccentricity": 0.00013,
        "meta_inclination": 0.0242,
        "meta_ra_of_asc_node": 77.2412,
        "meta_arg_of_pericenter": 184.4827,
        "meta_mean_anomaly": 276.8355,
        "meta_ephemeris_type": 0,
        "meta_classification_type": "U",
        "meta_norad_cat_id": 41836,
        "meta_element_set_no": 999,
        "meta_rev_at_epoch": 3331,
        "meta_bstar": 0,
        "meta_mean_motion_dot": -2.71e-06,
        "meta_mean_motion_ddot": 0,
        "tle_line1": "1 41836U 16064A   25343.88586477 -.00000271  00000+0  00000+0 0  9998",
        "tle_line2": "2 41836   0.0242  77.2412 0001300 184.4827 276.8355  1.00273683 33319"
      },
      "geometry": {
        "type": "Point",
        "coordinates": [
          33.71839721343364,
          -0.0005807664019101039
        ]
      }
    }
  ]
}